[Satellite]
VERSION=1.1
NAME=CZ-6A DEB
NICKNAME=CZ-6A DEB
TLE1=1 54565U 22151LR  22342.21766996  .00004666  00000+0  14416-2 0  9994
TLE2=2 54565  98.7184 347.2156 0153266 236.5317 122.1139 14.35249096  3513
STATUS=0
